{
    "links": {
        "self": "http://www.neowsapp.com/rest/v1/neo/3371744?api_key=iIulBulltgU6a56xZRHN4H3l9WmuAYTsLGpBGhQ2"
    },
    "id": "3371744",
    "neo_reference_id": "3371744",
    "name": "(2007 FD3)",
    "designation": "2007 FD3",
    "nasa_jpl_url": "http://ssd.jpl.nasa.gov/sbdb.cgi?sstr=3371744",
    "absolute_magnitude_h": 20.0,
    "estimated_diameter": {
        "kilometers": {
            "estimated_diameter_min": 0.2658,
            "estimated_diameter_max": 0.5943468684
        },
        "meters": {
            "estimated_diameter_min": 265.8,
            "estimated_diameter_max": 594.3468684194
        },
        "miles": {
            "estimated_diameter_min": 0.1651604118,
            "estimated_diameter_max": 0.369309908
        },
        "feet": {
            "estimated_diameter_min": 872.047272,
            "estimated_diameter_max": 1949.9569797852
        }
    },
    "is_potentially_hazardous_asteroid": false,
    "close_approach_data": [
        {
            "close_approach_date": "2007-04-05",
            "close_approach_date_full": "2007-Apr-05 17:30",
            "epoch_date_close_approach": 1175794200000,
            "relative_velocity": {
                "kilometers_per_second": "19.6065359236",
                "kilometers_per_hour": "70583.5293248498",
                "miles_per_hour": "43857.8602074324"
            },
            "miss_distance": {
                "astronomical": "0.1261278399",
                "lunar": "49.0637297211",
                "kilometers": "18868456.196741013",
                "miles": "11724315.0169434594"
            },
            "orbiting_body": "Earth"
        }
    ],
    "orbital_data": {
        "orbit_id": "18",
        "orbit_determination_date": "2017-04-06 09:06:40",
        "first_observation_date": "2007-03-19",
        "last_observation_date": "2007-04-20",
        "data_arc_in_days": 32,
        "observations_used": 70,
        "orbit_uncertainty": "7",
        "minimum_orbit_intersection": ".1139",
        "jupiter_tisserand_invariant": "3.261",
        "epoch_osculation": "2459000.5",
        "eccentricity": ".5335482413562455",
        "semi_major_axis": "2.220425638118923",
        "inclination": "33.84563774275087",
        "ascending_node_longitude": "20.66032110589274",
        "orbital_period": "1208.517035716777",
        "perihelion_distance": "1.035721443838252",
        "perihelion_argument": "140.4498482247034",
        "aphelion_distance": "3.405129832399593",
        "perihelion_time": "2458995.306258499074",
        "mean_anomaly": "1.547141566957375",
        "mean_motion": ".2978857470440888",
        "equinox": "J2000",
        "orbit_class": {
            "orbit_class_type": "AMO",
            "orbit_class_description": "Near-Earth asteroid orbits similar to that of 1221 Amor",
            "orbit_class_range": "1.017 AU < q (perihelion) < 1.3 AU"
        }
    },
    "is_sentry_object": false
}